{"fetched_at":"2026-07-11T09:24:23.728Z","source":"https://celestrak.org/NORAD/elements/gp.php?NAME=ICEYE&FORMAT=JSON","constellation":"iceye","records":[{"OBJECT_NAME":"ICEYE-X72","OBJECT_ID":"2026-067CS","EPOCH":"2026-07-09T16:00:01.999584","CLASSIFICATION_TYPE":"U","MEAN_MOTION":14.94885297,"ECCENTRICITY":0.00003754,"INCLINATION":97.7629,"RA_OF_ASC_NODE":148.6886,"ARG_OF_PERICENTER":251.4717,"MEAN_ANOMALY":20.8475,"EPHEMERIS_TYPE":0,"NORAD_CAT_ID":68504,"ELEMENT_SET_NO":999,"REV_AT_EPOCH":546,"BSTAR":0.0025152097,"MEAN_MOTION_DOT":0.00027457,"MEAN_MOTION_DDOT":0},{"OBJECT_NAME":"ICEYE-X78","OBJECT_ID":"2026-100R","EPOCH":"2026-07-11T03:43:52.524192","CLASSIFICATION_TYPE":"U","MEAN_MOTION":14.91808203,"ECCENTRICITY":0.0003754,"INCLINATION":97.734,"RA_OF_ASC_NODE":89.1639,"ARG_OF_PERICENTER":63.0176,"MEAN_ANOMALY":297.1426,"EPHEMERIS_TYPE":0,"NORAD_CAT_ID":68995,"ELEMENT_SET_NO":999,"REV_AT_EPOCH":1027,"BSTAR":0.000040146,"MEAN_MOTION_DOT":0.0000035,"MEAN_MOTION_DDOT":0},{"OBJECT_NAME":"ICEYE-X82","OBJECT_ID":"2026-100S","EPOCH":"2026-07-11T04:13:57.730368","CLASSIFICATION_TYPE":"U","MEAN_MOTION":14.91412369,"ECCENTRICITY":0.0005801,"INCLINATION":97.7335,"RA_OF_ASC_NODE":89.1319,"ARG_OF_PERICENTER":73.7724,"MEAN_ANOMALY":286.4132,"EPHEMERIS_TYPE":0,"NORAD_CAT_ID":68996,"ELEMENT_SET_NO":999,"REV_AT_EPOCH":1027,"BSTAR":0.000141,"MEAN_MOTION_DOT":0.00001353,"MEAN_MOTION_DDOT":0}]}
