ICEYE-X72               
1 68504U 26067CS  26190.66668981  .00027457  00000+0  25152-2 0  9993
2 68504  97.7629 148.6886 0000375 251.4717  20.8475 14.94885297  5466
ICEYE-X78               
1 68995U 26100R   26192.15546903  .00000350  00000+0  40146-4 0  9995
2 68995  97.7340  89.1639 0003754  63.0176 297.1426 14.91808203 10274
ICEYE-X82               
1 68996U 26100S   26192.17636262  .00001353  00000+0  14100-3 0  9990
2 68996  97.7335  89.1319 0005801  73.7724 286.4132 14.91412369 10275
